{
    "links": {
        "self": "http://www.neowsapp.com/rest/v1/neo/3989164?api_key=iIulBulltgU6a56xZRHN4H3l9WmuAYTsLGpBGhQ2"
    },
    "id": "3989164",
    "neo_reference_id": "3989164",
    "name": "(2020 BH7)",
    "designation": "2020 BH7",
    "nasa_jpl_url": "http://ssd.jpl.nasa.gov/sbdb.cgi?sstr=3989164",
    "absolute_magnitude_h": 27.736,
    "estimated_diameter": {
        "kilometers": {
            "estimated_diameter_min": 0.0075397158,
            "estimated_diameter_max": 0.0168593171
        },
        "meters": {
            "estimated_diameter_min": 7.5397158105,
            "estimated_diameter_max": 16.8593170834
        },
        "miles": {
            "estimated_diameter_min": 0.0046849608,
            "estimated_diameter_max": 0.0104758907
        },
        "feet": {
            "estimated_diameter_min": 24.7366012198,
            "estimated_diameter_max": 55.3127218598
        }
    },
    "is_potentially_hazardous_asteroid": false,
    "close_approach_data": [
        {
            "close_approach_date": "2020-01-23",
            "close_approach_date_full": "2020-Jan-23 12:03",
            "epoch_date_close_approach": 1579780980000,
            "relative_velocity": {
                "kilometers_per_second": "7.8042811436",
                "kilometers_per_hour": "28095.4121169662",
                "miles_per_hour": "17457.3964901227"
            },
            "miss_distance": {
                "astronomical": "0.0313874108",
                "lunar": "12.2097028012",
                "kilometers": "4695489.800494996",
                "miles": "2917642.0691671048"
            },
            "orbiting_body": "Earth"
        }
    ],
    "orbital_data": {
        "orbit_id": "4",
        "orbit_determination_date": "2020-03-06 06:40:19",
        "first_observation_date": "2020-01-24",
        "last_observation_date": "2020-01-31",
        "data_arc_in_days": 7,
        "observations_used": 24,
        "orbit_uncertainty": "7",
        "minimum_orbit_intersection": ".0281105",
        "jupiter_tisserand_invariant": "3.111",
        "epoch_osculation": "2459000.5",
        "eccentricity": ".6124958092205844",
        "semi_major_axis": "2.610234589011195",
        "inclination": "3.279960888349206",
        "ascending_node_longitude": "119.8836466076952",
        "orbital_period": "1540.344057252371",
        "perihelion_distance": "1.011476842159223",
        "perihelion_argument": "10.32647602465348",
        "aphelion_distance": "4.208992335863166",
        "perihelion_time": "2458877.749858485596",
        "mean_anomaly": "28.68842888517434",
        "mean_motion": ".2337140188291175",
        "equinox": "J2000",
        "orbit_class": {
            "orbit_class_type": "APO",
            "orbit_class_description": "Near-Earth asteroid orbits which cross the Earth’s orbit similar to that of 1862 Apollo",
            "orbit_class_range": "a (semi-major axis) > 1.0 AU; q (perihelion) < 1.017 AU"
        }
    },
    "is_sentry_object": false
}